ONEWEB-0340             
1 49206U 21083W   26096.65845582  .00000087  00000+0  18794-3 0  9997
2 49206  87.9233 349.6723 0001685  81.2076 278.9247 13.18689020220543
ONEWEB-0341             
1 49207U 21083X   26096.96856161 -.00000020  00000+0 -84705-4 0  9992
2 49207  87.9227 349.6188 0001663  63.3388 296.7915 13.18685221220601
ONEWEB-0342             
1 49208U 21083Y   26096.76070903  .00000019  00000+0  15614-4 0  9992
2 49208  87.9140 288.6972 0001848  89.1786 270.9559 13.20771957227354
ONEWEB-0343             
1 49209U 21083Z   26096.97682728  .00000070  00000+0  14412-3 0  9991
2 49209  87.9232 349.6128 0001985  65.7709 294.3630 13.18685826220657
ONEWEB-0344             
1 49210U 21083AA  26096.89379693  .00000101  00000+0  24133-3 0  9994
2 49210  87.8984 334.4446 0001601  68.5416 291.5884 13.13469425221536
ONEWEB-0345             
1 49211U 21083AB  26096.88532579  .00000051  00000+0  10571-3 0  9993
2 49211  87.8998 334.4170 0001648  69.7877 290.3429 13.13469711221542
ONEWEB-0346             
1 49212U 21083AC  26096.97350980 -.00000055  00000+0 -17307-3 0  9998
2 49212  87.9225 349.6191 0001143  93.5405 266.5858 13.18687219220595
ONEWEB-0348             
1 49213U 21083AD  26096.90274034 -.00000015  00000+0 -68789-4 0  9994
2 49213  87.9141 288.6720 0001162  89.5661 270.5606 13.20772750227404
ONEWEB-0350             
1 49214U 21083AE  26096.89464090  .00000003  00000+0 -27658-4 0  9992
2 49214  87.8998 334.4139 0001516  69.3410 290.7882 13.13471672221572
ONEWEB-0351             
1 49215U 21083AF  26096.82052976 -.00000057  00000+0 -17209-3 0  9992
2 49215  87.9141 288.6867 0002444  76.3926 283.7479 13.20772799227351
ONEWEB-0352             
1 49216U 21083AG  26096.64664018  .00000301  00000+0  78915-3 0  9990
2 49216  87.8991 334.4784 0002097  75.5121 284.6240 13.13469164221636
ONEWEB-0354             
1 49217U 21083AH  26096.77016526  .00000039  00000+0  62915-4 0  9992
2 49217  87.9140 288.6958 0001475  85.3055 274.8246 13.20772286227386
ONEWEB-0355             
1 49218U 21083AJ  26096.90408375 -.00000170  00000+0 -49941-3 0  9996
2 49218  87.8985 334.4354 0001807  74.6167 285.5162 13.13468002221545
ONEWEB-0357             
1 49219U 21083AK  26096.91852176  .00000023  00000+0  23914-4 0  9998
2 49219  87.9140 288.6610 0001859  86.6511 273.4835 13.20772562227409
ONEWEB-0332             
1 49279U 21090A   26096.82015504 -.00000238  00000+0 -67518-3 0  9995
2 49279  87.8939 303.9550 0001915  90.2831 269.8518 13.14503221218205
ONEWEB-0347             
1 49280U 21090B   26096.75754392  .00000039  00000+0  63361-4 0  9994
2 49280  87.9139 288.7018 0001937  97.1473 262.9881 13.20772765221615
