[{"OBJECT_NAME":"ONEWEB-0340","OBJECT_ID":"2021-083W","EPOCH":"2026-04-06T15:48:10.582848","MEAN_MOTION":13.1868902,"ECCENTRICITY":0.0001685,"INCLINATION":87.9233,"RA_OF_ASC_NODE":349.6723,"ARG_OF_PERICENTER":81.2076,"MEAN_ANOMALY":278.9247,"EPHEMERIS_TYPE":0,"CLASSIFICATION_TYPE":"U","NORAD_CAT_ID":49206,"ELEMENT_SET_NO":999,"REV_AT_EPOCH":22054,"BSTAR":0.00018794,"MEAN_MOTION_DOT":8.7e-07,"MEAN_MOTION_DDOT":0.0},{"OBJECT_NAME":"ONEWEB-0341","OBJECT_ID":"2021-083X","EPOCH":"2026-04-06T23:14:43.723104","MEAN_MOTION":13.18685221,"ECCENTRICITY":0.0001663,"INCLINATION":87.9227,"RA_OF_ASC_NODE":349.6188,"ARG_OF_PERICENTER":63.3388,"MEAN_ANOMALY":296.7915,"EPHEMERIS_TYPE":0,"CLASSIFICATION_TYPE":"U","NORAD_CAT_ID":49207,"ELEMENT_SET_NO":999,"REV_AT_EPOCH":22060,"BSTAR":-8.4705e-05,"MEAN_MOTION_DOT":-2e-07,"MEAN_MOTION_DDOT":0.0},{"OBJECT_NAME":"ONEWEB-0342","OBJECT_ID":"2021-083Y","EPOCH":"2026-04-06T18:15:25.260192","MEAN_MOTION":13.20771957,"ECCENTRICITY":0.0001848,"INCLINATION":87.914,"RA_OF_ASC_NODE":288.6972,"ARG_OF_PERICENTER":89.1786,"MEAN_ANOMALY":270.9559,"EPHEMERIS_TYPE":0,"CLASSIFICATION_TYPE":"U","NORAD_CAT_ID":49208,"ELEMENT_SET_NO":999,"REV_AT_EPOCH":22735,"BSTAR":1.5614e-05,"MEAN_MOTION_DOT":1.9e-07,"MEAN_MOTION_DDOT":0.0},{"OBJECT_NAME":"ONEWEB-0343","OBJECT_ID":"2021-083Z","EPOCH":"2026-04-06T23:26:37.876992","MEAN_MOTION":13.18685826,"ECCENTRICITY":0.0001985,"INCLINATION":87.9232,"RA_OF_ASC_NODE":349.6128,"ARG_OF_PERICENTER":65.7709,"MEAN_ANOMALY":294.363,"EPHEMERIS_TYPE":0,"CLASSIFICATION_TYPE":"U","NORAD_CAT_ID":49209,"ELEMENT_SET_NO":999,"REV_AT_EPOCH":22065,"BSTAR":0.00014412,"MEAN_MOTION_DOT":7e-07,"MEAN_MOTION_DDOT":0.0},{"OBJECT_NAME":"ONEWEB-0344","OBJECT_ID":"2021-083AA","EPOCH":"2026-04-06T21:27:04.054752","MEAN_MOTION":13.13469425,"ECCENTRICITY":0.0001601,"INCLINATION":87.8984,"RA_OF_ASC_NODE":334.4446,"ARG_OF_PERICENTER":68.5416,"MEAN_ANOMALY":291.5884,"EPHEMERIS_TYPE":0,"CLASSIFICATION_TYPE":"U","NORAD_CAT_ID":49210,"ELEMENT_SET_NO":999,"REV_AT_EPOCH":22153,"BSTAR":0.00024133,"MEAN_MOTION_DOT":1.01e-06,"MEAN_MOTION_DDOT":0.0},{"OBJECT_NAME":"ONEWEB-0345","OBJECT_ID":"2021-083AB","EPOCH":"2026-04-06T21:14:52.148256","MEAN_MOTION":13.13469711,"ECCENTRICITY":0.0001648,"INCLINATION":87.8998,"RA_OF_ASC_NODE":334.417,"ARG_OF_PERICENTER":69.7877,"MEAN_ANOMALY":290.3429,"EPHEMERIS_TYPE":0,"CLASSIFICATION_TYPE":"U","NORAD_CAT_ID":49211,"ELEMENT_SET_NO":999,"REV_AT_EPOCH":22154,"BSTAR":0.00010571,"MEAN_MOTION_DOT":5.1e-07,"MEAN_MOTION_DDOT":0.0},{"OBJECT_NAME":"ONEWEB-0346","OBJECT_ID":"2021-083AC","EPOCH":"2026-04-06T23:21:51.246720","MEAN_MOTION":13.18687219,"ECCENTRICITY":0.0001143,"INCLINATION":87.9225,"RA_OF_ASC_NODE":349.6191,"ARG_OF_PERICENTER":93.5405,"MEAN_ANOMALY":266.5858,"EPHEMERIS_TYPE":0,"CLASSIFICATION_TYPE":"U","NORAD_CAT_ID":49212,"ELEMENT_SET_NO":999,"REV_AT_EPOCH":22059,"BSTAR":-0.00017307,"MEAN_MOTION_DOT":-5.5e-07,"MEAN_MOTION_DDOT":0.0},{"OBJECT_NAME":"ONEWEB-0348","OBJECT_ID":"2021-083AD","EPOCH":"2026-04-06T21:39:56.765376","MEAN_MOTION":13.2077275,"ECCENTRICITY":0.0001162,"INCLINATION":87.9141,"RA_OF_ASC_NODE":288.672,"ARG_OF_PERICENTER":89.5661,"MEAN_ANOMALY":270.5606,"EPHEMERIS_TYPE":0,"CLASSIFICATION_TYPE":"U","NORAD_CAT_ID":49213,"ELEMENT_SET_NO":999,"REV_AT_EPOCH":22740,"BSTAR":-6.878900000000001e-05,"MEAN_MOTION_DOT":-1.5e-07,"MEAN_MOTION_DDOT":0.0},{"OBJECT_NAME":"ONEWEB-0350","OBJECT_ID":"2021-083AE","EPOCH":"2026-04-06T21:28:16.973760","MEAN_MOTION":13.13471672,"ECCENTRICITY":0.0001516,"INCLINATION":87.8998,"RA_OF_ASC_NODE":334.4139,"ARG_OF_PERICENTER":69.341,"MEAN_ANOMALY":290.7882,"EPHEMERIS_TYPE":0,"CLASSIFICATION_TYPE":"U","NORAD_CAT_ID":49214,"ELEMENT_SET_NO":999,"REV_AT_EPOCH":22157,"BSTAR":-2.7658000000000002e-05,"MEAN_MOTION_DOT":3e-08,"MEAN_MOTION_DDOT":0.0},{"OBJECT_NAME":"ONEWEB-0351","OBJECT_ID":"2021-083AF","EPOCH":"2026-04-06T19:41:33.771264","MEAN_MOTION":13.20772799,"ECCENTRICITY":0.0002444,"INCLINATION":87.9141,"RA_OF_ASC_NODE":288.6867,"ARG_OF_PERICENTER":76.3926,"MEAN_ANOMALY":283.7479,"EPHEMERIS_TYPE":0,"CLASSIFICATION_TYPE":"U","NORAD_CAT_ID":49215,"ELEMENT_SET_NO":999,"REV_AT_EPOCH":22735,"BSTAR":-0.00017209,"MEAN_MOTION_DOT":-5.7e-07,"MEAN_MOTION_DDOT":0.0},{"OBJECT_NAME":"ONEWEB-0352","OBJECT_ID":"2021-083AG","EPOCH":"2026-04-06T15:31:09.711552","MEAN_MOTION":13.13469164,"ECCENTRICITY":0.0002097,"INCLINATION":87.8991,"RA_OF_ASC_NODE":334.4784,"ARG_OF_PERICENTER":75.5121,"MEAN_ANOMALY":284.624,"EPHEMERIS_TYPE":0,"CLASSIFICATION_TYPE":"U","NORAD_CAT_ID":49216,"ELEMENT_SET_NO":999,"REV_AT_EPOCH":22163,"BSTAR":0.0007891500000000001,"MEAN_MOTION_DOT":3.01e-06,"MEAN_MOTION_DDOT":0.0},{"OBJECT_NAME":"ONEWEB-0354","OBJECT_ID":"2021-083AH","EPOCH":"2026-04-06T18:29:02.278464","MEAN_MOTION":13.20772286,"ECCENTRICITY":0.0001475,"INCLINATION":87.914,"RA_OF_ASC_NODE":288.6958,"ARG_OF_PERICENTER":85.3055,"MEAN_ANOMALY":274.8246,"EPHEMERIS_TYPE":0,"CLASSIFICATION_TYPE":"U","NORAD_CAT_ID":49217,"ELEMENT_SET_NO":999,"REV_AT_EPOCH":22738,"BSTAR":6.2915e-05,"MEAN_MOTION_DOT":3.9e-07,"MEAN_MOTION_DDOT":0.0},{"OBJECT_NAME":"ONEWEB-0355","OBJECT_ID":"2021-083AJ","EPOCH":"2026-04-06T21:41:52.836000","MEAN_MOTION":13.13468002,"ECCENTRICITY":0.0001807,"INCLINATION":87.8985,"RA_OF_ASC_NODE":334.4354,"ARG_OF_PERICENTER":74.6167,"MEAN_ANOMALY":285.5162,"EPHEMERIS_TYPE":0,"CLASSIFICATION_TYPE":"U","NORAD_CAT_ID":49218,"ELEMENT_SET_NO":999,"REV_AT_EPOCH":22154,"BSTAR":-0.00049941,"MEAN_MOTION_DOT":-1.7e-06,"MEAN_MOTION_DDOT":0.0},{"OBJECT_NAME":"ONEWEB-0357","OBJECT_ID":"2021-083AK","EPOCH":"2026-04-06T22:02:40.280064","MEAN_MOTION":13.20772562,"ECCENTRICITY":0.0001859,"INCLINATION":87.914,"RA_OF_ASC_NODE":288.661,"ARG_OF_PERICENTER":86.6511,"MEAN_ANOMALY":273.4835,"EPHEMERIS_TYPE":0,"CLASSIFICATION_TYPE":"U","NORAD_CAT_ID":49219,"ELEMENT_SET_NO":999,"REV_AT_EPOCH":22740,"BSTAR":2.3914000000000002e-05,"MEAN_MOTION_DOT":2.3e-07,"MEAN_MOTION_DDOT":0.0},{"OBJECT_NAME":"ONEWEB-0332","OBJECT_ID":"2021-090A","EPOCH":"2026-04-06T19:41:01.395456","MEAN_MOTION":13.14503221,"ECCENTRICITY":0.0001915,"INCLINATION":87.8939,"RA_OF_ASC_NODE":303.955,"ARG_OF_PERICENTER":90.2831,"MEAN_ANOMALY":269.8518,"EPHEMERIS_TYPE":0,"CLASSIFICATION_TYPE":"U","NORAD_CAT_ID":49279,"ELEMENT_SET_NO":999,"REV_AT_EPOCH":21820,"BSTAR":-0.00067518,"MEAN_MOTION_DOT":-2.38e-06,"MEAN_MOTION_DDOT":0.0},{"OBJECT_NAME":"ONEWEB-0347","OBJECT_ID":"2021-090B","EPOCH":"2026-04-06T18:10:51.794688","MEAN_MOTION":13.20772765,"ECCENTRICITY":0.0001937,"INCLINATION":87.9139,"RA_OF_ASC_NODE":288.7018,"ARG_OF_PERICENTER":97.1473,"MEAN_ANOMALY":262.9881,"EPHEMERIS_TYPE":0,"CLASSIFICATION_TYPE":"U","NORAD_CAT_ID":49280,"ELEMENT_SET_NO":999,"REV_AT_EPOCH":22161,"BSTAR":6.3361e-05,"MEAN_MOTION_DOT":3.9e-07,"MEAN_MOTION_DDOT":0.0}]